1 29155U 06018A   11028.40101039 -.00000259  00000-0  10000-3 0  4601
2 29155 000.4007 078.6850 0002379 337.6868 140.4631 01.00268612 17172